AMC-1 (GE-1)            
1 24315U 96054A   22012.50901890  .00000072  00000+0  00000+0 0  9995
2 24315   5.2539  74.4631 0003589 217.9490 231.8898  1.00272184 92817
AMC-3 (GE-3)            
1 24936U 97050A   22012.41041899 -.00000253  00000+0  00000+0 0  9997
2 24936   4.1661  80.9452 0003316 214.3113 252.3557  1.00275169 89232
ASTRA 1G                
1 25071U 97076A   22012.06439171  .00000122  00000+0  00000+0 0  9995
2 25071   5.8901  69.4733 0004005 219.9695 224.6302  1.00274566 88323
ASTRA 2A                
1 25462U 98050A   22012.06891830  .00000157  00000+0  00000+0 0  9994
2 25462   3.0167  87.2502 0002661 191.0668 246.0450  1.00267613 85525
AMC-4 (GE-4)            
1 25954U 99060A   22011.65658395  .00000097  00000+0  00000+0 0  9996
2 25954   1.1285  93.6556 0003215 200.1557 278.7739  1.00273308 27331
NSS-11 (AAP-1)          
1 26554U 00059A   22012.49684562  .00000038  00000+0  00000+0 0  9996
2 26554   0.0128 357.6950 0002832 291.2953 177.8180  1.00273220 77964
AMC-6 (GE-6)            
1 26580U 00067A   22011.90535312  .00000116  00000+0  00000+0 0  9994
2 26580   0.0341 303.5676 0002703 349.2825   5.4408  1.00272831 77702
ASTRA 2D                
1 26638U 00081A   22011.97852417  .00000134  00000+0  00000+0 0  9999
2 26638   6.9641  61.3493 0002247 224.8894 201.1462  1.00270108 77178
AMC-8 (GE-8)            
1 26639U 00081B   22012.19643757  .00000097  00000+0  00000+0 0  9998
2 26639   2.0564  90.2767 0002791 203.1807 113.9232  1.00272282 77061
ASTRA 2C                
1 26853U 01025A   22011.54656019 -.00000252  00000+0  00000+0 0  9992
2 26853   4.1902  80.7499 0002748 206.9837 307.5307  1.00269183 28820
ASTRA 3A                
1 27400U 02015B   22011.54773216 -.00000199  00000+0  00000+0 0  9990
2 27400   7.0721  60.2015 0001875 218.1282 303.0847  1.00272510 72496
NSS-7                   
1 27414U 02019A   22012.41822758 -.00000151  00000+0  00000+0 0  9990
2 27414   5.5375  72.5789 0002796 235.8675 293.9825  1.00271889 72343
NSS-6                   
1 27603U 02057A   22012.10136351  .00000119  00000+0  00000+0 0  9998
2 27603   1.2193  93.4643 0003476 201.9755  43.1201  1.00275965 69814
AMC-11 (GE-11)          
1 28252U 04017A   22011.65994764  .00000080  00000+0  00000+0 0  9993
2 28252   0.0141   4.0203 0002711 280.6989 292.9842  1.00272256 64662
AMC-15                  
1 28446U 04041A   22012.50983443 -.00000076  00000+0  00000+0 0  9998
2 28446   0.0261 329.3225 0003057 324.7714 256.3595  1.00272822 63136
NSS-10 (AMC-12)         
1 28526U 05003A   22012.12770344 -.00000241  00000+0  00000+0 0  9992
2 28526   2.3987  89.0291 0003355 188.9825 202.0948  1.00272346 62109
ASTRA 1KR               
1 29055U 06012A   22012.06717392  .00000132  00000+0  00000+0 0  9996
2 29055   0.0750 271.5419 0005179 350.4515 252.9185  1.00275512 57534
AMC-18                  
1 29644U 06054B   22012.11863272 -.00000204  00000+0  00000+0 0  9992
2 29644   0.0209 320.4967 0002688 325.9787 144.8035  1.00270470 55336
ASTRA 1L                
1 31306U 07016A   22012.21073524  .00000132  00000+0  00000+0 0  9992
2 31306   0.0868 295.9839 0005336 356.1792 274.5848  1.00275172 53823
ASTRA 4A (SIRIUS 4)     
1 32299U 07057A   22011.95410875  .00000044  00000+0  00000+0 0  9995
2 32299   0.0116   8.2864 0002989 280.5813 170.8370  1.00273432 35464
AMC-21                  
1 33275U 08038B   22012.53111356  .00000049  00000+0  00000+0 0  9992
2 33275   0.0161 347.4554 0002714 310.9745 239.8495  1.00272345 49259
ASTRA 1M                
1 33436U 08057A   22012.06785514  .00000131  00000+0  00000+0 0  9995
2 33436   0.0142  80.4774 0001606 160.0995 274.5258  1.00271634 48268
CIEL-2                  
1 33453U 08063A   22012.59169785  .00000071  00000+0  00000+0 0  9998
2 33453   0.0114  41.8071 0003285 251.4331 262.9712  1.00272176 47910
NSS-9                   
1 33749U 09008A   22012.19810979  .00000084  00000+0  00000+0 0  9994
2 33749   0.0446 298.6559 0002287 352.4348  74.9435  1.00272806 47351
SES-7 (PROTOSTAR 2)     
1 34941U 09027A   22012.01318581 -.00000334  00000+0  00000+0 0  9992
2 34941   0.0090   8.4194 0002317 256.4027 319.6539  1.00273367 46394
NSS-12                  
1 36032U 09058A   22012.10049498  .00000083  00000+0  00000+0 0  9997
2 36032   0.0110 351.6622 0002914 305.2010 267.8618  1.00273133 44691
SES-1                   
1 36516U 10016A   22012.25648576 -.00000102  00000+0  00000+0 0  9991
2 36516   0.0093  36.8725 0002607 257.2614 168.9070  1.00272250 42925
ASTRA 3B                
1 36581U 10021A   22012.49855562  .00000149  00000+0  00000+0 0  9990
2 36581   0.0462  50.1131 0004192 228.9152  35.9039  1.00271089 42433
SES-3                   
1 37748U 11035A   22012.10447324 -.00000090  00000+0  00000+0 0  9999
2 37748   0.0443 303.7823 0002948 353.1053 109.2782  1.00272237 38487
ASTRA 1N                
1 37775U 11041A   22012.56955133  .00000132  00000+0  00000+0 0  9994
2 37775   0.0431  24.4450 0002992 322.2932 349.5032  1.00271262 38191
SES-2                   
1 37809U 11049A   22012.52896505 -.00000183  00000+0  00000+0 0  9990
2 37809   0.0445 290.1712 0003203   8.6006 276.6309  1.00271418 37784
QUETZSAT 1              
1 37826U 11054A   22011.55301338 -.00000231  00000+0  00000+0 0  9996
2 37826   0.0259 319.4985 0002596 333.7307 299.8828  1.00272256 37877
SES-4                   
1 38087U 12007A   22012.34601082 -.00000156  00000+0  00000+0 0  9998
2 38087   0.0105  13.4802 0002375 284.2264 276.6541  1.00271814 36270
SES-5                   
1 38652U 12036A   22011.95697729  .00000045  00000+0  00000+0 0  9993
2 38652   0.0571 292.9702 0002061 355.1366 172.7976  1.00272354 28270
ASTRA 2F                
1 38778U 12051A   22012.21247962  .00000162  00000+0  00000+0 0  9999
2 38778   0.1015 252.2257 0004042 357.0380 327.0916  1.00275073 34070
SES-6                   
1 39172U 13026A   22011.69645661 -.00000250  00000+0  00000+0 0  9999
2 39172   0.0471 296.1481 0002663 344.6660  40.5670  1.00272094 31509
O3B FM5                 
1 39188U 13031A   22011.93824443 -.00000021  00000+0  00000+0 0  9992
2 39188   0.0319 357.7346 0002634 306.0040  56.2333  5.00116200156219
O3B FM4                 
1 39189U 13031B   22011.60416491 -.00000021  00000+0  00000+0 0  9997
2 39189   0.0554  17.5961 0003276 236.4459 105.9188  5.00116292156130
O3B FM2                 
1 39190U 13031C   22011.65665617 -.00000021  00000+0  00000+0 0  9990
2 39190   0.0597  20.4426 0005808 207.7340 131.7708  5.00115959156191
O3B PFM                 
1 39191U 13031D   22011.68347646 -.00000021  00000+0  00000+0 0  9993
2 39191   0.0396   4.9007 0002588 288.4565  66.6125  5.00115796155971
ASTRA 2E                
1 39285U 13056A   22012.06900552  .00000162  00000+0  00000+0 0  9993
2 39285   0.0576  26.9246 0002519 278.6177 219.3205  1.00273783 30377
SES-8                   
1 39460U 13071A   22012.51294664 -.00000257  00000+0  00000+0 0  9991
2 39460   0.0567 253.3137 0000911  43.1690  95.1647  1.00272485 29664
ASTRA 5B                
1 39617U 14011B   22012.06961604  .00000166  00000+0  00000+0 0  9993
2 39617   0.0303   1.2518 0003317 276.6435 250.1774  1.00271463 28659
O3B FM3                 
1 40079U 14038A   22011.39170154 -.00000021  00000+0  00000+0 0  9994
2 40079   0.0481  14.7909 0003990 312.4038  32.7774  5.00115429132112
O3B FM7                 
1 40080U 14038B   22011.53785775 -.00000021  00000+0  00000+0 0  9993
2 40080   0.0494  19.7451 0002499 229.2371 110.9880  5.00115955136950
O3B FM6                 
1 40081U 14038C   22011.56408161 -.00000021  00000+0  00000+0 0  9998
2 40081   0.0492  14.3695 0002661 277.2356  68.3635  5.00115543136909
O3B FM8                 
1 40082U 14038D   22011.61807227 -.00000021  00000+0  00000+0 0  9991
2 40082   0.0523  14.7736 0002821 276.9464  68.2469  5.00115486137012
O3B FM10                
1 40348U 14083A   22011.44423701 -.00000021  00000+0  00000+0 0  9998
2 40348   0.0447   4.9364 0002662 286.6713  68.3608  5.00115944128967
O3B FM11                
1 40349U 14083B   22011.65746650 -.00000021  00000+0  00000+0 0  9993
2 40349   0.0411   9.0104 0002058 272.0591  78.9044  5.00115246128998
O3B FM12                
1 40350U 14083C   22011.52505120 -.00000021  00000+0  00000+0 0  9996
2 40350   0.0422   9.1886 0002596 276.2515  74.5281  5.00115819128990
O3B FM9                 
1 40351U 14083D   22011.51164827 -.00000021  00000+0  00000+0 0  9991
2 40351   0.0401   9.7787 0002590 280.8130  69.3774  5.00115039129143
ASTRA 2G                
1 40364U 14089A   22011.94296198  .00000161  00000+0  00000+0 0  9999
2 40364   0.0271  20.6052 0002471 348.7286 109.7092  1.00271588 25755
SES-9                   
1 41380U 16013A   22012.08496647 -.00000333  00000+0  00000+0 0  9996
2 41380   0.0420 282.2215 0000366  80.0066 248.2037  1.00269761 21530
SES-10                  
1 42432U 17017A   22012.52341097 -.00000260  00000+0  00000+0 0  9996
2 42432   0.0105  21.8939 0002705 266.9183 304.6913  1.00269870 17517
SES-15                  
1 42709U 17026A   22012.19971884  .00000072  00000+0  00000+0 0  9999
2 42709   0.0174  15.5234 0000614 262.3836 136.4997  1.00270095 17974
SES-11 (ECHOSTAR 105)   
1 42967U 17063A   22012.50983816 -.00000077  00000+0  00000+0 0  9995
2 42967   0.0506 273.7156 0002258 357.8529 278.9761  1.00271275 15593
SES-14                  
1 43175U 18012B   22012.41273282 -.00000266  00000+0  00000+0 0  9991
2 43175   0.0134  19.6835 0001149 256.7894 296.4672  1.00270597 14842
O3B FM15                
1 43231U 18024A   22012.17759500 -.00000021  00000+0  00000+0 0  9991
2 43231   0.0472   1.6703 0002697 292.2267  66.0718  5.00115829 70308
O3B FM16                
1 43232U 18024B   22011.63125221 -.00000021  00000+0  00000+0 0  9999
2 43232   0.0496 357.6477 0002674 294.9844  67.3366  5.00115735 70020
O3B FM14                
1 43233U 18024C   22011.87072450 -.00000021  00000+0  00000+0 0  9991
2 43233   0.0510 356.7908 0002617 292.3815  70.7964  5.00116210 70036
O3B FM13                
1 43234U 18024D   22003.92647920 -.00000021  00000+0  00000+0 0  9999
2 43234   0.0232   1.9781 0006017 122.5596 235.5162  4.99514979 69764
SES-12                  
1 43488U 18049A   22011.72349427 -.00000259  00000+0  00000+0 0  9998
2 43488   0.0174  47.1201 0002472 229.0746 190.4468  1.00272060 13207
O3B FM20                
1 44112U 19020A   22011.69738284 -.00000021  00000+0  00000+0 0  9999
2 44112   0.0454   5.1998 0002337 288.5693  66.2033  5.00115320 50647
O3B FM19                
1 44113U 19020B   22006.08774779 -.00000023  00000+0  00000+0 0  9998
2 44113   0.0202 319.6486 0002263 339.8660  60.4587  5.00115839 50438
O3B FM17                
1 44114U 19020C   22011.40493704 -.00000021  00000+0  00000+0 0  9995
2 44114   0.0650   5.6440 0002667 289.1107  65.2145  5.00115344 50590
O3B FM18                
1 44115U 19020D   22011.35158753 -.00000021  00000+0  00000+0 0  9992
2 44115   0.0449   5.0990 0002826 287.5350  67.3329  5.00115671 50703
SES-17                  
1 49332U 21095A   22011.49370590 -.00000144  00000+0  00000+0 0  9999
2 49332   3.4304 257.5238 5277013 188.4739 281.6147  1.42226258  1512
